COSMOS 2522 (752)       
1 42939U 17055A   25067.61796698  .00000012  00000+0  00000+0 0  9998
2 42939  64.0794 207.7366 0006794 229.3770 130.5328  2.13101756 58052
COSMOS 2527 (756)       
1 43508U 18053A   25066.17007262  .00000025  00000+0  00000+0 0  9996
2 43508  65.3245  89.5139 0009797 244.1289 115.8223  2.13102234 52326
COSMOS 2529 (757)       
1 43687U 18086A   25069.08387150 -.00000008  00000+0  00000+0 0  9992
2 43687  64.2951 208.2709 0007784 257.1651 102.7112  2.13101991 49394
COSMOS 2534 (758)       
1 44299U 19030A   25069.84800609 -.00000016  00000+0  00000+0 0  9994
2 44299  64.3684 208.2235 0009757 284.1875  76.1761  2.13102245 45058
COSMOS 2544 (759)       
1 44850U 19088A   25069.39920076  .00000048  00000+0  00000+0 0  9995
2 44850  65.3135  89.2377 0015639 260.3461  99.5351  2.13102053 40832
COSMOS 2545 (760)       
1 45358U 20018A   25069.12660202 -.00000069  00000+0  00000+0 0  9991
2 45358  64.6203 328.6863 0008278 255.0098 104.9434  2.13102510 38773
COSMOS 2547 (705K)      
1 46805U 20075A   25069.31232953 -.00000011  00000+0  00000+0 0  9998
2 46805  64.5983 207.9621 0006531 232.7139 127.1893  2.13103032 34024
COSMOS 2557 (706K)      
1 52984U 22075A   25068.07160389 -.00000076  00000+0  00000+0 0  9991
2 52984  64.5548 330.8288 0012125 285.6300  74.2763  2.13101801 20805
COSMOS 2559 (707K)      
1 54031U 22130A   25068.01529398 -.00000077  00000+0  00000+0 0  9992
2 54031  64.5270 330.9392 0005572 231.7573 128.2322  2.13101216 18775
COSMOS 2564 (761)       
1 54377U 22161A   25069.61239686 -.00000014  00000+0  00000+0 0  9995
2 54377  64.7398 208.1049 0008791 209.8180 150.0937  2.13101970 17751
COSMOS 2569 (703K)      
1 57517U 23114A   25069.15845474  .00000046  00000+0  00000+0 0  9994
2 57517  65.0440  88.2992 0012868 292.7580  67.1626  2.13104062 12372
COSMOS 2584 [GLONASS-K2]
1 63130U 25042A   25064.36754166  .00000017  00000+0  00000+0 0  9997
2 63130  64.8229  88.7725 0002688 303.9787  56.0471  2.12878091    50
