[
    {
        "OBJECT_NAME": "COSMOS 2522 [GLONASS-M]",
        "OBJECT_ID": "2017-055A",
        "EPOCH": "2025-03-08T14:49:52.347072",
        "MEAN_MOTION": 2.13101756,
        "ECCENTRICITY": 0.0006794,
        "INCLINATION": 64.0794,
        "RA_OF_ASC_NODE": 207.7366,
        "ARG_OF_PERICENTER": 229.377,
        "MEAN_ANOMALY": 130.5328,
        "EPHEMERIS_TYPE": 0,
        "CLASSIFICATION_TYPE": "U",
        "NORAD_CAT_ID": 42939,
        "ELEMENT_SET_NO": 999,
        "REV_AT_EPOCH": 5805,
        "BSTAR": 0,
        "MEAN_MOTION_DOT": 1.2e-07,
        "MEAN_MOTION_DDOT": 0
    },
    {
        "OBJECT_NAME": "COSMOS 2527 [GLONASS-M]",
        "OBJECT_ID": "2018-053A",
        "EPOCH": "2025-03-07T04:04:54.274368",
        "MEAN_MOTION": 2.13102234,
        "ECCENTRICITY": 0.0009797,
        "INCLINATION": 65.3245,
        "RA_OF_ASC_NODE": 89.5139,
        "ARG_OF_PERICENTER": 244.1289,
        "MEAN_ANOMALY": 115.8223,
        "EPHEMERIS_TYPE": 0,
        "CLASSIFICATION_TYPE": "U",
        "NORAD_CAT_ID": 43508,
        "ELEMENT_SET_NO": 999,
        "REV_AT_EPOCH": 5232,
        "BSTAR": 0,
        "MEAN_MOTION_DOT": 2.5e-07,
        "MEAN_MOTION_DDOT": 0
    },
    {
        "OBJECT_NAME": "COSMOS 2529 [GLONASS-M]",
        "OBJECT_ID": "2018-086A",
        "EPOCH": "2025-03-10T02:00:46.497600",
        "MEAN_MOTION": 2.13101991,
        "ECCENTRICITY": 0.0007784,
        "INCLINATION": 64.2951,
        "RA_OF_ASC_NODE": 208.2709,
        "ARG_OF_PERICENTER": 257.1651,
        "MEAN_ANOMALY": 102.7112,
        "EPHEMERIS_TYPE": 0,
        "CLASSIFICATION_TYPE": "U",
        "NORAD_CAT_ID": 43687,
        "ELEMENT_SET_NO": 999,
        "REV_AT_EPOCH": 4939,
        "BSTAR": 0,
        "MEAN_MOTION_DOT": -8e-08,
        "MEAN_MOTION_DDOT": 0
    },
    {
        "OBJECT_NAME": "COSMOS 2534 [GLONASS-M]",
        "OBJECT_ID": "2019-030A",
        "EPOCH": "2025-03-10T20:21:07.726176",
        "MEAN_MOTION": 2.13102245,
        "ECCENTRICITY": 0.0009757,
        "INCLINATION": 64.3684,
        "RA_OF_ASC_NODE": 208.2235,
        "ARG_OF_PERICENTER": 284.1875,
        "MEAN_ANOMALY": 76.1761,
        "EPHEMERIS_TYPE": 0,
        "CLASSIFICATION_TYPE": "U",
        "NORAD_CAT_ID": 44299,
        "ELEMENT_SET_NO": 999,
        "REV_AT_EPOCH": 4505,
        "BSTAR": 0,
        "MEAN_MOTION_DOT": -1.6e-07,
        "MEAN_MOTION_DDOT": 0
    },
    {
        "OBJECT_NAME": "COSMOS 2544 [GLONASS-M]",
        "OBJECT_ID": "2019-088A",
        "EPOCH": "2025-03-10T09:34:50.945664",
        "MEAN_MOTION": 2.13102053,
        "ECCENTRICITY": 0.0015639,
        "INCLINATION": 65.3135,
        "RA_OF_ASC_NODE": 89.2377,
        "ARG_OF_PERICENTER": 260.3461,
        "MEAN_ANOMALY": 99.5351,
        "EPHEMERIS_TYPE": 0,
        "CLASSIFICATION_TYPE": "U",
        "NORAD_CAT_ID": 44850,
        "ELEMENT_SET_NO": 999,
        "REV_AT_EPOCH": 4083,
        "BSTAR": 0,
        "MEAN_MOTION_DOT": 4.8e-07,
        "MEAN_MOTION_DDOT": 0
    },
    {
        "OBJECT_NAME": "COSMOS 2545 [GLONASS-M]",
        "OBJECT_ID": "2020-018A",
        "EPOCH": "2025-03-10T03:02:18.414528",
        "MEAN_MOTION": 2.1310251,
        "ECCENTRICITY": 0.0008278,
        "INCLINATION": 64.6203,
        "RA_OF_ASC_NODE": 328.6863,
        "ARG_OF_PERICENTER": 255.0098,
        "MEAN_ANOMALY": 104.9434,
        "EPHEMERIS_TYPE": 0,
        "CLASSIFICATION_TYPE": "U",
        "NORAD_CAT_ID": 45358,
        "ELEMENT_SET_NO": 999,
        "REV_AT_EPOCH": 3877,
        "BSTAR": 0,
        "MEAN_MOTION_DOT": -6.9e-07,
        "MEAN_MOTION_DDOT": 0
    },
    {
        "OBJECT_NAME": "COSMOS 2547 [GLONASS-K]",
        "OBJECT_ID": "2020-075A",
        "EPOCH": "2025-03-10T07:29:45.271392",
        "MEAN_MOTION": 2.13103032,
        "ECCENTRICITY": 0.0006531,
        "INCLINATION": 64.5983,
        "RA_OF_ASC_NODE": 207.9621,
        "ARG_OF_PERICENTER": 232.7139,
        "MEAN_ANOMALY": 127.1893,
        "EPHEMERIS_TYPE": 0,
        "CLASSIFICATION_TYPE": "U",
        "NORAD_CAT_ID": 46805,
        "ELEMENT_SET_NO": 999,
        "REV_AT_EPOCH": 3402,
        "BSTAR": 0,
        "MEAN_MOTION_DOT": -1.1e-07,
        "MEAN_MOTION_DDOT": 0
    },
    {
        "OBJECT_NAME": "COSMOS 2557 [GLONASS-K]",
        "OBJECT_ID": "2022-075A",
        "EPOCH": "2025-03-09T01:43:06.576096",
        "MEAN_MOTION": 2.13101801,
        "ECCENTRICITY": 0.0012125,
        "INCLINATION": 64.5548,
        "RA_OF_ASC_NODE": 330.8288,
        "ARG_OF_PERICENTER": 285.63,
        "MEAN_ANOMALY": 74.2763,
        "EPHEMERIS_TYPE": 0,
        "CLASSIFICATION_TYPE": "U",
        "NORAD_CAT_ID": 52984,
        "ELEMENT_SET_NO": 999,
        "REV_AT_EPOCH": 2080,
        "BSTAR": 0,
        "MEAN_MOTION_DOT": -7.6e-07,
        "MEAN_MOTION_DDOT": 0
    },
    {
        "OBJECT_NAME": "COSMOS 2559 [GLONASS-K]",
        "OBJECT_ID": "2022-130A",
        "EPOCH": "2025-03-09T00:22:01.399872",
        "MEAN_MOTION": 2.13101216,
        "ECCENTRICITY": 0.0005572,
        "INCLINATION": 64.527,
        "RA_OF_ASC_NODE": 330.9392,
        "ARG_OF_PERICENTER": 231.7573,
        "MEAN_ANOMALY": 128.2322,
        "EPHEMERIS_TYPE": 0,
        "CLASSIFICATION_TYPE": "U",
        "NORAD_CAT_ID": 54031,
        "ELEMENT_SET_NO": 999,
        "REV_AT_EPOCH": 1877,
        "BSTAR": 0,
        "MEAN_MOTION_DOT": -7.7e-07,
        "MEAN_MOTION_DDOT": 0
    },
    {
        "OBJECT_NAME": "COSMOS 2564 [GLONASS-M]",
        "OBJECT_ID": "2022-161A",
        "EPOCH": "2025-03-10T14:41:51.088704",
        "MEAN_MOTION": 2.1310197,
        "ECCENTRICITY": 0.0008791,
        "INCLINATION": 64.7398,
        "RA_OF_ASC_NODE": 208.1049,
        "ARG_OF_PERICENTER": 209.818,
        "MEAN_ANOMALY": 150.0937,
        "EPHEMERIS_TYPE": 0,
        "CLASSIFICATION_TYPE": "U",
        "NORAD_CAT_ID": 54377,
        "ELEMENT_SET_NO": 999,
        "REV_AT_EPOCH": 1775,
        "BSTAR": 0,
        "MEAN_MOTION_DOT": -1.4e-07,
        "MEAN_MOTION_DDOT": 0
    },
    {
        "OBJECT_NAME": "COSMOS 2569 [GLONASS-K2]",
        "OBJECT_ID": "2023-114A",
        "EPOCH": "2025-03-10T03:48:10.489536",
        "MEAN_MOTION": 2.13104062,
        "ECCENTRICITY": 0.0012868,
        "INCLINATION": 65.044,
        "RA_OF_ASC_NODE": 88.2992,
        "ARG_OF_PERICENTER": 292.758,
        "MEAN_ANOMALY": 67.1626,
        "EPHEMERIS_TYPE": 0,
        "CLASSIFICATION_TYPE": "U",
        "NORAD_CAT_ID": 57517,
        "ELEMENT_SET_NO": 999,
        "REV_AT_EPOCH": 1237,
        "BSTAR": 0,
        "MEAN_MOTION_DOT": 4.6e-07,
        "MEAN_MOTION_DDOT": 0
    },
    {
        "OBJECT_NAME": "COSMOS 2584 [GLONASS-K2]",
        "OBJECT_ID": "2025-042A",
        "EPOCH": "2025-03-05T08:49:15.599424",
        "MEAN_MOTION": 2.12878091,
        "ECCENTRICITY": 0.0002688,
        "INCLINATION": 64.8229,
        "RA_OF_ASC_NODE": 88.7725,
        "ARG_OF_PERICENTER": 303.9787,
        "MEAN_ANOMALY": 56.0471,
        "EPHEMERIS_TYPE": 0,
        "CLASSIFICATION_TYPE": "U",
        "NORAD_CAT_ID": 63130,
        "ELEMENT_SET_NO": 999,
        "REV_AT_EPOCH": 5,
        "BSTAR": 0,
        "MEAN_MOTION_DOT": 1.7e-07,
        "MEAN_MOTION_DDOT": 0
    }
]